STARLINK-35656          
1 66391U 25257M   25339.15715922  .00426205  00000+0  98522-2 0  9996
2 66391  53.1603 300.1096 0000983 171.4639 188.6383 15.40317588  5302
STARLINK-35671          
1 66392U 25257N   25340.33335648  .00109226  00000+0  27056-2 0  9997
2 66392  53.1606 294.6314 0002022 106.4401 271.9400 15.39575554  5467
STARLINK-35652          
1 66393U 25257P   25340.33335648 -.00016484  00000+0 -40318-3 0  9990
2 66393  53.1588 294.5321 0001688  94.7612 333.3094 15.39605007  5463
STARLINK-35672          
1 66394U 25257Q   25340.33335648  .00133633  00000+0  32908-2 0  9990
2 66394  53.1595 294.5279 0001827  66.0664   3.8041 15.39635863  5462
STARLINK-35681          
1 66395U 25257R   25340.33335648 -.02005353  00000+0 -52938-1 0  9996
2 66395  53.1590 294.4836 0001186  92.5245 359.8998 15.41470870  5309
STARLINK-35669          
1 66396U 25257S   25339.60237029  .00115623  00000+0  20340-2 0  9990
2 66396  53.1591 297.9221 0001526 110.2235 249.8938 15.49619062  5276
STARLINK-35510          
1 66397U 25257T   25340.33335648 -.01999219  00000+0 -47939-1 0  9995
2 66397  53.1590 294.4465 0001259  75.9621  34.7935 15.44290943  5464
STARLINK-35642          
1 66398U 25257U   25340.18249905 -.00460233  00000+0 -89627-2 0  9998
2 66398  53.1592 295.1428 0000920 161.1871 198.9172 15.48674632  5363
STARLINK-35657          
1 66399U 25257V   25340.18186554  .00145721  00000+0  26165-2 0  9997
2 66399  53.1591 295.1395 0004983 230.5372 129.5196 15.48895026  5364
STARLINK-35667          
1 66400U 25257W   25340.18135957 -.00038213  00000+0 -68117-3 0  9994
2 66400  53.1592 295.1350 0001852 118.9172 241.2023 15.49356007  5361
STARLINK-35668          
1 66401U 25257X   25340.33335648 -.01694206  00000+0 -33579-1 0  9994
2 66401  53.1587 294.4065 0001557  90.2703  39.9269 15.49728436  5469
STARLINK-35644          
1 66402U 25257Y   25340.24553060  .00105964  00000+0  18841-2 0  9996
2 66402  53.1581 294.8244 0000792  85.5717 274.5382 15.49361286  5378
