CCSDS_OMM_VERS = 2.0
CREATION_DATE  = 
ORIGINATOR     = 

OBJECT_NAME    = STARLINK-35656
OBJECT_ID      = 2025-257M
CENTER_NAME    = EARTH
REF_FRAME      = TEME
TIME_SYSTEM    = UTC
MEAN_ELEMENT_THEORY = SGP/SGP4

EPOCH          = 2025-12-05T03:46:18.556608
MEAN_MOTION    = 15.40317588
ECCENTRICITY   = .00009833
INCLINATION    = 53.1603
RA_OF_ASC_NODE = 300.1096
ARG_OF_PERICENTER = 171.4639
MEAN_ANOMALY   = 188.6383

EPHEMERIS_TYPE = 0
CLASSIFICATION_TYPE = U
NORAD_CAT_ID   = 66391
ELEMENT_SET_NO = 999
REV_AT_EPOCH   = 530
BSTAR          = .98522303E-2
MEAN_MOTION_DOT = .426205E-2
MEAN_MOTION_DDOT = 0

CCSDS_OMM_VERS = 2.0
CREATION_DATE  = 
ORIGINATOR     = 

OBJECT_NAME    = STARLINK-35671
OBJECT_ID      = 2025-257N
CENTER_NAME    = EARTH
REF_FRAME      = TEME
TIME_SYSTEM    = UTC
MEAN_ELEMENT_THEORY = SGP/SGP4

EPOCH          = 2025-12-06T08:00:01.999872
MEAN_MOTION    = 15.39575554
ECCENTRICITY   = .00020228
INCLINATION    = 53.1606
RA_OF_ASC_NODE = 294.6314
ARG_OF_PERICENTER = 106.4401
MEAN_ANOMALY   = 271.9400

EPHEMERIS_TYPE = 0
CLASSIFICATION_TYPE = U
NORAD_CAT_ID   = 66392
ELEMENT_SET_NO = 999
REV_AT_EPOCH   = 546
BSTAR          = .27055968E-2
MEAN_MOTION_DOT = .109226E-2
MEAN_MOTION_DDOT = 0

CCSDS_OMM_VERS = 2.0
CREATION_DATE  = 
ORIGINATOR     = 

OBJECT_NAME    = STARLINK-35652
OBJECT_ID      = 2025-257P
CENTER_NAME    = EARTH
REF_FRAME      = TEME
TIME_SYSTEM    = UTC
MEAN_ELEMENT_THEORY = SGP/SGP4

EPOCH          = 2025-12-06T08:00:01.999872
MEAN_MOTION    = 15.39605007
ECCENTRICITY   = .00016884
INCLINATION    = 53.1588
RA_OF_ASC_NODE = 294.5321
ARG_OF_PERICENTER = 94.7612
MEAN_ANOMALY   = 333.3094

EPHEMERIS_TYPE = 0
CLASSIFICATION_TYPE = U
NORAD_CAT_ID   = 66393
ELEMENT_SET_NO = 999
REV_AT_EPOCH   = 546
BSTAR          = -.40318203E-3
MEAN_MOTION_DOT = -.16484E-3
MEAN_MOTION_DDOT = 0

CCSDS_OMM_VERS = 2.0
CREATION_DATE  = 
ORIGINATOR     = 

OBJECT_NAME    = STARLINK-35672
OBJECT_ID      = 2025-257Q
CENTER_NAME    = EARTH
REF_FRAME      = TEME
TIME_SYSTEM    = UTC
MEAN_ELEMENT_THEORY = SGP/SGP4

EPOCH          = 2025-12-06T08:00:01.999872
MEAN_MOTION    = 15.39635863
ECCENTRICITY   = .00018279
INCLINATION    = 53.1595
RA_OF_ASC_NODE = 294.5279
ARG_OF_PERICENTER = 66.0664
MEAN_ANOMALY   = 3.8041

EPHEMERIS_TYPE = 0
CLASSIFICATION_TYPE = U
NORAD_CAT_ID   = 66394
ELEMENT_SET_NO = 999
REV_AT_EPOCH   = 546
BSTAR          = .32908426E-2
MEAN_MOTION_DOT = .133633E-2
MEAN_MOTION_DDOT = 0

CCSDS_OMM_VERS = 2.0
CREATION_DATE  = 
ORIGINATOR     = 

OBJECT_NAME    = STARLINK-35681
OBJECT_ID      = 2025-257R
CENTER_NAME    = EARTH
REF_FRAME      = TEME
TIME_SYSTEM    = UTC
MEAN_ELEMENT_THEORY = SGP/SGP4

EPOCH          = 2025-12-06T08:00:01.999872
MEAN_MOTION    = 15.41470870
ECCENTRICITY   = .00011861
INCLINATION    = 53.1590
RA_OF_ASC_NODE = 294.4836
ARG_OF_PERICENTER = 92.5245
MEAN_ANOMALY   = 359.8998

EPHEMERIS_TYPE = 0
CLASSIFICATION_TYPE = U
NORAD_CAT_ID   = 66395
ELEMENT_SET_NO = 999
REV_AT_EPOCH   = 530
BSTAR          = -.52938078E-1
MEAN_MOTION_DOT = -.2005353E-1
MEAN_MOTION_DDOT = 0

CCSDS_OMM_VERS = 2.0
CREATION_DATE  = 
ORIGINATOR     = 

OBJECT_NAME    = STARLINK-35669
OBJECT_ID      = 2025-257S
CENTER_NAME    = EARTH
REF_FRAME      = TEME
TIME_SYSTEM    = UTC
MEAN_ELEMENT_THEORY = SGP/SGP4

EPOCH          = 2025-12-05T14:27:24.793056
MEAN_MOTION    = 15.49619062
ECCENTRICITY   = .00015262
INCLINATION    = 53.1591
RA_OF_ASC_NODE = 297.9221
ARG_OF_PERICENTER = 110.2235
MEAN_ANOMALY   = 249.8938

EPHEMERIS_TYPE = 0
CLASSIFICATION_TYPE = U
NORAD_CAT_ID   = 66396
ELEMENT_SET_NO = 999
REV_AT_EPOCH   = 527
BSTAR          = .20340148E-2
MEAN_MOTION_DOT = .115623E-2
MEAN_MOTION_DDOT = 0

CCSDS_OMM_VERS = 2.0
CREATION_DATE  = 
ORIGINATOR     = 

OBJECT_NAME    = STARLINK-35510
OBJECT_ID      = 2025-257T
CENTER_NAME    = EARTH
REF_FRAME      = TEME
TIME_SYSTEM    = UTC
MEAN_ELEMENT_THEORY = SGP/SGP4

EPOCH          = 2025-12-06T08:00:01.999872
MEAN_MOTION    = 15.44290943
ECCENTRICITY   = .00012592
INCLINATION    = 53.1590
RA_OF_ASC_NODE = 294.4465
ARG_OF_PERICENTER = 75.9621
MEAN_ANOMALY   = 34.7935

EPHEMERIS_TYPE = 0
CLASSIFICATION_TYPE = U
NORAD_CAT_ID   = 66397
ELEMENT_SET_NO = 999
REV_AT_EPOCH   = 546
BSTAR          = -.47938944E-1
MEAN_MOTION_DOT = -.1999219E-1
MEAN_MOTION_DDOT = 0

CCSDS_OMM_VERS = 2.0
CREATION_DATE  = 
ORIGINATOR     = 

OBJECT_NAME    = STARLINK-35642
OBJECT_ID      = 2025-257U
CENTER_NAME    = EARTH
REF_FRAME      = TEME
TIME_SYSTEM    = UTC
MEAN_ELEMENT_THEORY = SGP/SGP4

EPOCH          = 2025-12-06T04:22:47.917920
MEAN_MOTION    = 15.48674632
ECCENTRICITY   = .00009202
INCLINATION    = 53.1592
RA_OF_ASC_NODE = 295.1428
ARG_OF_PERICENTER = 161.1871
MEAN_ANOMALY   = 198.9172

EPHEMERIS_TYPE = 0
CLASSIFICATION_TYPE = U
NORAD_CAT_ID   = 66398
ELEMENT_SET_NO = 999
REV_AT_EPOCH   = 536
BSTAR          = -.89627224E-2
MEAN_MOTION_DOT = -.460233E-2
MEAN_MOTION_DDOT = 0

CCSDS_OMM_VERS = 2.0
CREATION_DATE  = 
ORIGINATOR     = 

OBJECT_NAME    = STARLINK-35657
OBJECT_ID      = 2025-257V
CENTER_NAME    = EARTH
REF_FRAME      = TEME
TIME_SYSTEM    = UTC
MEAN_ELEMENT_THEORY = SGP/SGP4

EPOCH          = 2025-12-06T04:21:53.182656
MEAN_MOTION    = 15.48895026
ECCENTRICITY   = .00049838
INCLINATION    = 53.1591
RA_OF_ASC_NODE = 295.1395
ARG_OF_PERICENTER = 230.5372
MEAN_ANOMALY   = 129.5196

EPHEMERIS_TYPE = 0
CLASSIFICATION_TYPE = U
NORAD_CAT_ID   = 66399
ELEMENT_SET_NO = 999
REV_AT_EPOCH   = 536
BSTAR          = .26164761E-2
MEAN_MOTION_DOT = .145721E-2
MEAN_MOTION_DDOT = 0

CCSDS_OMM_VERS = 2.0
CREATION_DATE  = 
ORIGINATOR     = 

OBJECT_NAME    = STARLINK-35667
OBJECT_ID      = 2025-257W
CENTER_NAME    = EARTH
REF_FRAME      = TEME
TIME_SYSTEM    = UTC
MEAN_ELEMENT_THEORY = SGP/SGP4

EPOCH          = 2025-12-06T04:21:09.466848
MEAN_MOTION    = 15.49356007
ECCENTRICITY   = .00018529
INCLINATION    = 53.1592
RA_OF_ASC_NODE = 295.1350
ARG_OF_PERICENTER = 118.9172
MEAN_ANOMALY   = 241.2023

EPHEMERIS_TYPE = 0
CLASSIFICATION_TYPE = U
NORAD_CAT_ID   = 66400
ELEMENT_SET_NO = 999
REV_AT_EPOCH   = 536
BSTAR          = -.68117353E-3
MEAN_MOTION_DOT = -.38213E-3
MEAN_MOTION_DDOT = 0

CCSDS_OMM_VERS = 2.0
CREATION_DATE  = 
ORIGINATOR     = 

OBJECT_NAME    = STARLINK-35668
OBJECT_ID      = 2025-257X
CENTER_NAME    = EARTH
REF_FRAME      = TEME
TIME_SYSTEM    = UTC
MEAN_ELEMENT_THEORY = SGP/SGP4

EPOCH          = 2025-12-06T08:00:01.999872
MEAN_MOTION    = 15.49728436
ECCENTRICITY   = .00015575
INCLINATION    = 53.1587
RA_OF_ASC_NODE = 294.4065
ARG_OF_PERICENTER = 90.2703
MEAN_ANOMALY   = 39.9269

EPHEMERIS_TYPE = 0
CLASSIFICATION_TYPE = U
NORAD_CAT_ID   = 66401
ELEMENT_SET_NO = 999
REV_AT_EPOCH   = 546
BSTAR          = -.33578695E-1
MEAN_MOTION_DOT = -.1694206E-1
MEAN_MOTION_DDOT = 0

CCSDS_OMM_VERS = 2.0
CREATION_DATE  = 
ORIGINATOR     = 

OBJECT_NAME    = STARLINK-35644
OBJECT_ID      = 2025-257Y
CENTER_NAME    = EARTH
REF_FRAME      = TEME
TIME_SYSTEM    = UTC
MEAN_ELEMENT_THEORY = SGP/SGP4

EPOCH          = 2025-12-06T05:53:33.843840
MEAN_MOTION    = 15.49361286
ECCENTRICITY   = .00007923
INCLINATION    = 53.1581
RA_OF_ASC_NODE = 294.8244
ARG_OF_PERICENTER = 85.5717
MEAN_ANOMALY   = 274.5382

EPHEMERIS_TYPE = 0
CLASSIFICATION_TYPE = U
NORAD_CAT_ID   = 66402
ELEMENT_SET_NO = 999
REV_AT_EPOCH   = 537
BSTAR          = .18840832E-2
MEAN_MOTION_DOT = .105964E-2
MEAN_MOTION_DDOT = 0

